start=new Date('2023-03-18T00:00:00.000Z').valueOf();
sats=[{"CENTER_NAME":"EARTH","ECCENTRICITY":"0.00011630","PERIOD":"95.593","BSTAR":"-0.00034496000000","LAUNCH_DATE":"2021-05-26","GP_ID":"228354795","CLASSIFICATION_TYPE":"U","MEAN_MOTION":"15.06383191","TIME_SYSTEM":"UTC","OBJECT_TYPE":"PAYLOAD","FILE":"3863544","RCS_SIZE":"LARGE","APOAPSIS":"548.070","MEAN_ANOMALY":"251.8897","MEAN_ELEMENT_THEORY":"SGP4","MEAN_MOTION_DDOT":"0.0000000000000","REF_FRAME":"TEME","MEAN_MOTION_DOT":"-0.00005413","INCLINATION":"53.0535","TLE_LINE2":"2 48695  53.0535 289.9613 0001163 108.2219 251.8897 15.06383191100241","NORAD_CAT_ID":"48695","EPHEMERIS_TYPE":"0","DECAY_DATE":null,"COUNTRY_CODE":"US","OBJECT_NAME":"STARLINK-2616","REV_AT_EPOCH":"10024","OBJECT_ID":"2021-044BK","TLE_LINE1":"1 48695U 21044BK  23076.89767033 -.00005413  00000-0 -34496-3 0  9998","SITE":"AFETR","PERIAPSIS":"546.460","ARG_OF_PERICENTER":"108.2219","RA_OF_ASC_NODE":"289.9613","EPOCH":"2023-03-17T21:32:38.716512","ELEMENT_SET_NO":"999","SEMIMAJOR_AXIS":"6925.400"},{"EPHEMERIS_TYPE":"0","DECAY_DATE":null,"COUNTRY_CODE":"US","OBJECT_NAME":"STARLINK-2753","REV_AT_EPOCH":"10017","OBJECT_ID":"2021-044BL","TLE_LINE1":"1 48696U 21044BL  23076.88799891  .00019522  00000-0  13260-2 0  9994","SITE":"AFETR","PERIAPSIS":"545.943","ARG_OF_PERICENTER":"84.0373","RA_OF_ASC_NODE":"295.0037","EPOCH":"2023-03-17T21:18:43.105824","ELEMENT_SET_NO":"999","SEMIMAJOR_AXIS":"6925.362","CENTER_NAME":"EARTH","PERIOD":"95.592","ECCENTRICITY":"0.00018550","BSTAR":"0.00132600000000","LAUNCH_DATE":"2021-05-26","GP_ID":"228355045","CLASSIFICATION_TYPE":"U","TIME_SYSTEM":"UTC","MEAN_MOTION":"15.06395491","OBJECT_TYPE":"PAYLOAD","FILE":"3863544","RCS_SIZE":"LARGE","APOAPSIS":"548.512","MEAN_ANOMALY":"276.0828","MEAN_ELEMENT_THEORY":"SGP4","MEAN_MOTION_DDOT":"0.0000000000000","REF_FRAME":"TEME","MEAN_MOTION_DOT":"0.00019522","INCLINATION":"53.0523","TLE_LINE2":"2 48696  53.0523 295.0037 0001855  84.0373 276.0828 15.06395491100178","NORAD_CAT_ID":"48696"},{"REV_AT_EPOCH":"10008","OBJECT_ID":"2021-044BM","SITE":"AFETR","TLE_LINE1":"1 48697U 21044BM  23076.32034626 -.00003354  00000-0 -20627-3 0  9996","OBJECT_NAME":"STARLINK-2715","COUNTRY_CODE":"US","DECAY_DATE":null,"EPHEMERIS_TYPE":"0","EPOCH":"2023-03-17T07:41:17.916864","SEMIMAJOR_AXIS":"6925.301","ELEMENT_SET_NO":"999","PERIAPSIS":"546.313","ARG_OF_PERICENTER":"86.2345","RA_OF_ASC_NODE":"297.5089","OBJECT_TYPE":"PAYLOAD","FILE":"3863278","BSTAR":"-0.00020627000000","CENTER_NAME":"EARTH","ECCENTRICITY":"0.00012320","PERIOD":"95.591","TIME_SYSTEM":"UTC","CLASSIFICATION_TYPE":"U","MEAN_MOTION":"15.06415615","GP_ID":"228323745","LAUNCH_DATE":"2021-05-26","REF_FRAME":"TEME","MEAN_MOTION_DOT":"-0.00003354","MEAN_ELEMENT_THEORY":"SGP4","MEAN_MOTION_DDOT":"0.0000000000000","TLE_LINE2":"2 48697  53.0506 297.5089 0001232  86.2345 273.8785 15.06415615100084","NORAD_CAT_ID":"48697","INCLINATION":"53.0506","RCS_SIZE":"LARGE","MEAN_ANOMALY":"273.8785","APOAPSIS":"548.019"},{"ARG_OF_PERICENTER":"108.7953","RA_OF_ASC_NODE":"204.1674","PERIAPSIS":"559.088","SEMIMAJOR_AXIS":"6938.640","ELEMENT_SET_NO":"999","EPOCH":"2023-03-17T21:05:55.093632","OBJECT_NAME":"STARLINK-3003","COUNTRY_CODE":"US","DECAY_DATE":null,"EPHEMERIS_TYPE":"0","SITE":"AFETR","TLE_LINE1":"1 48879U 21059A   23076.87910988  .00006608  00000-0  50747-3 0  9997","REV_AT_EPOCH":"9558","OBJECT_ID":"2021-059A","MEAN_ANOMALY":"251.3494","APOAPSIS":"561.922","RCS_SIZE":"LARGE","NORAD_CAT_ID":"48879","TLE_LINE2":"2 48879  97.5117 204.1674 0002042 108.7953 251.3494 15.02073724 95589","INCLINATION":"97.5117","REF_FRAME":"TEME","MEAN_MOTION_DOT":"0.00006608","MEAN_MOTION_DDOT":"0.0000000000000","MEAN_ELEMENT_THEORY":"SGP4","TIME_SYSTEM":"UTC","CLASSIFICATION_TYPE":"U","MEAN_MOTION":"15.02073724","GP_ID":"228355064","LAUNCH_DATE":"2021-06-30","BSTAR":"0.00050747000000","CENTER_NAME":"EARTH","ECCENTRICITY":"0.00020420","PERIOD":"95.867","FILE":"3863544","OBJECT_TYPE":"PAYLOAD"},{"EPOCH":"2023-03-17T21:03:26.879616","ELEMENT_SET_NO":"999","SEMIMAJOR_AXIS":"6938.660","PERIAPSIS":"559.222","ARG_OF_PERICENTER":"104.7135","RA_OF_ASC_NODE":"204.1639","REV_AT_EPOCH":"9558","OBJECT_ID":"2021-059B","TLE_LINE1":"1 48880U 21059B   23076.87739444  .00004352  00000-0  33591-3 0  9997","SITE":"AFETR","EPHEMERIS_TYPE":"0","DECAY_DATE":null,"COUNTRY_CODE":"US","OBJECT_NAME":"STARLINK-3004","MEAN_MOTION_DDOT":"0.0000000000000","MEAN_ELEMENT_THEORY":"SGP4","REF_FRAME":"TEME","MEAN_MOTION_DOT":"0.00004352","INCLINATION":"97.5106","TLE_LINE2":"2 48880  97.5106 204.1639 0001878 104.7135 255.4298 15.02067165 95583","NORAD_CAT_ID":"48880","RCS_SIZE":"LARGE","APOAPSIS":"561.828","MEAN_ANOMALY":"255.4298","OBJECT_TYPE":"PAYLOAD","FILE":"3863544","CENTER_NAME":"EARTH","PERIOD":"95.868","ECCENTRICITY":"0.00018780","BSTAR":"0.00033591000000","LAUNCH_DATE":"2021-06-30","GP_ID":"228354312","CLASSIFICATION_TYPE":"U","TIME_SYSTEM":"UTC","MEAN_MOTION":"15.02067165"},{"ELEMENT_SET_NO":"999","SEMIMAJOR_AXIS":"6938.667","EPOCH":"2023-03-17T20:57:19.213920","ARG_OF_PERICENTER":"109.3723","RA_OF_ASC_NODE":"204.1908","PERIAPSIS":"559.327","TLE_LINE1":"1 48881U 21059C   23076.87313905  .00011106  00000-0  84964-3 0  9993","SITE":"AFETR","REV_AT_EPOCH":"9558","OBJECT_ID":"2021-059C","DECAY_DATE":null,"EPHEMERIS_TYPE":"0","COUNTRY_CODE":"US","OBJECT_NAME":"STARLINK-3005","INCLINATION":"97.5110","TLE_LINE2":"2 48881  97.5110 204.1908 0001737 109.3723 250.7690 15.02064966 95586","NORAD_CAT_ID":"48881","MEAN_MOTION_DDOT":"0.0000000000000","MEAN_ELEMENT_THEORY":"SGP4","REF_FRAME":"TEME","MEAN_MOTION_DOT":"0.00011106","APOAPSIS":"561.737","MEAN_ANOMALY":"250.7690","RCS_SIZE":"LARGE","FILE":"3863355","OBJECT_TYPE":"PAYLOAD","LAUNCH_DATE":"2021-06-30","GP_ID":"228329764","CLASSIFICATION_TYPE":"U","MEAN_MOTION":"15.02064966","TIME_SYSTEM":"UTC","CENTER_NAME":"EARTH","ECCENTRICITY":"0.00017370","PERIOD":"95.868","BSTAR":"0.00084964000000"},{"CENTER_NAME":"EARTH","PERIOD":"96.108","ECCENTRICITY":"0.00029800","BSTAR":"0.00004286000000","GP_ID":"228354089","LAUNCH_DATE":"2021-09-14","CLASSIFICATION_TYPE":"U","TIME_SYSTEM":"UTC","MEAN_MOTION":"14.98320847","OBJECT_TYPE":"PAYLOAD","FILE":"3863544","RCS_SIZE":"LARGE","APOAPSIS":"574.157","MEAN_ANOMALY":"86.5859","MEAN_MOTION_DDOT":"0.0000000000000","MEAN_ELEMENT_THEORY":"SGP4","REF_FRAME":"TEME","MEAN_MOTION_DOT":"0.00000418","INCLINATION":"69.9987","TLE_LINE2":"2 49131  69.9987 117.3132 0002980 273.4959  86.5859 14.98320847 84014","NORAD_CAT_ID":"49131","EPHEMERIS_TYPE":"0","DECAY_DATE":null,"COUNTRY_CODE":"US","OBJECT_NAME":"STARLINK-3096","REV_AT_EPOCH":"8401","OBJECT_ID":"2021-082B","TLE_LINE1":"1 49131U 21082B   23076.83998907  .00000418  00000-0  42860-4 0  9999","SITE":"AFWTR","PERIAPSIS":"570.015","ARG_OF_PERICENTER":"273.4959","RA_OF_ASC_NODE":"117.3132","EPOCH":"2023-03-17T20:09:35.055648","ELEMENT_SET_NO":"999","SEMIMAJOR_AXIS":"6950.221"},{"MEAN_ANOMALY":"94.0686","APOAPSIS":"574.044","RCS_SIZE":"LARGE","NORAD_CAT_ID":"49132","TLE_LINE2":"2 49132  70.0006 158.2421 0002817 266.0151  94.0686 14.98320897 82976","INCLINATION":"70.0006","REF_FRAME":"TEME","MEAN_MOTION_DOT":"-0.00002532","MEAN_ELEMENT_THEORY":"SGP4","MEAN_MOTION_DDOT":"0.0000000000000","MEAN_MOTION":"14.98320897","CLASSIFICATION_TYPE":"U","TIME_SYSTEM":"UTC","LAUNCH_DATE":"2021-09-14","GP_ID":"228322789","BSTAR":"-0.00020455000000","CENTER_NAME":"EARTH","PERIOD":"96.108","ECCENTRICITY":"0.00028170","FILE":"3863278","OBJECT_TYPE":"PAYLOAD","ARG_OF_PERICENTER":"266.0151","RA_OF_ASC_NODE":"158.2421","PERIAPSIS":"570.128","SEMIMAJOR_AXIS":"6950.221","ELEMENT_SET_NO":"999","EPOCH":"2023-03-17T11:19:59.248992","OBJECT_NAME":"STARLINK-3090","EPHEMERIS_TYPE":"0","DECAY_DATE":null,"COUNTRY_CODE":"US","SITE":"AFWTR","TLE_LINE1":"1 49132U 21082C   23076.47221353 -.00002532  00000-0 -20455-3 0  9990","REV_AT_EPOCH":"8297","OBJECT_ID":"2021-082C"},{"ECCENTRICITY":"0.00030320","PERIOD":"96.107","CENTER_NAME":"EARTH","BSTAR":"-0.00017637000000","GP_ID":"228355590","LAUNCH_DATE":"2021-09-14","CLASSIFICATION_TYPE":"U","TIME_SYSTEM":"UTC","MEAN_MOTION":"14.98325789","OBJECT_TYPE":"PAYLOAD","FILE":"3863544","RCS_SIZE":"LARGE","APOAPSIS":"574.178","MEAN_ANOMALY":"89.3939","MEAN_ELEMENT_THEORY":"SGP4","MEAN_MOTION_DDOT":"0.0000000000000","MEAN_MOTION_DOT":"-0.00002197","REF_FRAME":"TEME","INCLINATION":"70.0010","NORAD_CAT_ID":"49133","TLE_LINE2":"2 49133  70.0010 157.0719 0003032 270.6873  89.3939 14.98325789 83043","EPHEMERIS_TYPE":"0","DECAY_DATE":null,"COUNTRY_CODE":"US","OBJECT_NAME":"STARLINK-3077","OBJECT_ID":"2021-082D","REV_AT_EPOCH":"8304","TLE_LINE1":"1 49133U 21082D   23076.93476461 -.00002197  00000-0 -17637-3 0  9999","SITE":"AFWTR","PERIAPSIS":"569.964","RA_OF_ASC_NODE":"157.0719","ARG_OF_PERICENTER":"270.6873","EPOCH":"2023-03-17T22:26:03.662304","ELEMENT_SET_NO":"999","SEMIMAJOR_AXIS":"6950.206"},{"ELEMENT_SET_NO":"999","SEMIMAJOR_AXIS":"6950.211","EPOCH":"2023-03-17T22:19:11.455680","RA_OF_ASC_NODE":"157.0863","ARG_OF_PERICENTER":"274.0535","PERIAPSIS":"569.906","TLE_LINE1":"1 49134U 21082E   23076.92999370  .00016455  00000-0  13838-2 0  9996","SITE":"AFWTR","OBJECT_ID":"2021-082E","REV_AT_EPOCH":"8424","COUNTRY_CODE":"US","DECAY_DATE":null,"EPHEMERIS_TYPE":"0","OBJECT_NAME":"STARLINK-3078","INCLINATION":"70.0006","NORAD_CAT_ID":"49134","TLE_LINE2":"2 49134  70.0006 157.0863 0003122 274.0535  86.0268 14.98324225 84248","MEAN_MOTION_DDOT":"0.0000000000000","MEAN_ELEMENT_THEORY":"SGP4","MEAN_MOTION_DOT":"0.00016455","REF_FRAME":"TEME","APOAPSIS":"574.246","MEAN_ANOMALY":"86.0268","RCS_SIZE":"LARGE","FILE":"3863544","OBJECT_TYPE":"PAYLOAD","GP_ID":"228353839","LAUNCH_DATE":"2021-09-14","MEAN_MOTION":"14.98324225","CLASSIFICATION_TYPE":"U","TIME_SYSTEM":"UTC","ECCENTRICITY":"0.00031220","PERIOD":"96.107","CENTER_NAME":"EARTH","BSTAR":"0.00138380000000"}];
